NORAD_CAT_ID,OBJECT_NAME,OBJECT_TYPE,EPOCH,MEAN_MOTION,ECCENTRICITY,INCLINATION,RA_OF_ASC_NODE,ARG_OF_PERICENTER,MEAN_ANOMALY,BSTAR,MEAN_MOTION_DOT,MEAN_MOTION_DDOT,TLE_LINE0,TLE_LINE1,TLE_LINE2,SEMIMAJOR_AXIS,PERIOD,APOGEE,PERIGEE,DECAYED
54185.0,STARLINK-5235,PAYLOAD,2022-11-03 16:00:00,15.87811951,0.0019203,53.2174,111.4121,198.5493,118.3805,-0.0048921,-0.01362538,0.00051609,0 STARLINK-5235,1 54185U 22141AE  22307.66667824 -.01362538  51609-3 -48921-2 0  9992,2 54185  53.2174 111.4121 0019203 198.5493 118.3805 15.87811951  1308,6686.556,90.691,321.261,295.58,0.0
54185.0,STARLINK-5235,PAYLOAD,2022-11-03 22:00:00,15.87139111,0.0016577,53.2175,110.1499,205.3754,101.1172,-0.0049308,-0.01323282,0.0004863,0 STARLINK-5235,1 54185U 22141AE  22307.91667824 -.01323282  48630-3 -49308-2 0  9993,2 54185  53.2175 110.1499 0016577 205.3754 101.1172 15.87139111  1309,6688.445,90.729,321.398,299.223,0.0
54185.0,STARLINK-5235,PAYLOAD,2022-11-04 06:00:00,15.86294673,0.0013702,53.2176,108.4646,213.6011,198.0426,-0.0053282,-0.01203047,0.0,0 STARLINK-5235,1 54185U 22141AE  22308.25001157 -.01203047  00000-0 -53282-2 0  9990,2 54185  53.2176 108.4646 0013702 213.6011 198.0426 15.86294673  1399,6690.819,90.778,321.851,303.516,0.0
54185.0,STARLINK-5235,PAYLOAD,2022-11-04 14:00:01,15.85401801,0.0011036,53.2176,106.7847,225.1079,290.6604,-0.0053649,-0.01160239,0.0,0 STARLINK-5235,1 54185U 22141AE  22308.58334491 -.01160239  00000-0 -53649-2 0  9998,2 54185  53.2176 106.7847 0011036 225.1079 290.6604 15.85401801  1303,6693.331,90.829,322.582,307.809,0.0
54185.0,STARLINK-5235,PAYLOAD,2022-11-04 22:00:01,15.84537496,0.0008906,53.2173,105.1076,249.6919,9.2134,-0.0056306,-0.01185364,0.0,0 STARLINK-5235,1 54185U 22141AE  22308.91668981 -.01185364  00000-0 -56306-2 0  9998,2 54185  53.2173 105.1076 0008906 249.6919   9.2134 15.84537496  1494,6695.764,90.878,323.593,311.666,0.0
54185.0,STARLINK-5235,PAYLOAD,2022-11-05 12:00:00,15.83013313,0.0005843999999999,53.2175,102.1734,267.4324,79.28,-0.0060334,-0.01177725,0.0,0 STARLINK-5235,1 54185U 22141AE  22309.50001157 -.01177725  00000-0 -60334-2 0  9998,2 54185  53.2175 102.1734 0005844 267.4324  79.2800 15.83013313  1594,6700.062,90.966,325.842,318.011,0.0
54185.0,STARLINK-5235,PAYLOAD,2022-11-05 14:00:01,15.82826488,0.0005001,53.2175,101.7557,270.3204,191.595,-0.0063688,-0.01225381,0.0,0 STARLINK-5235,1 54185U 22141AE  22309.58335648 -.01225381  00000-0 -63688-2 0  9998,2 54185  53.2175 101.7557 0005001 270.3204 191.5950 15.82826488  1304,6700.589,90.976,325.805,319.103,0.0
54185.0,STARLINK-5235,PAYLOAD,2022-11-05 20:00:01,15.82173018,0.0002577,53.2177,100.5028,274.1945,172.71099999999996,-0.0065442999999999,-0.01219377,0.0,0 STARLINK-5235,1 54185U 22141AE  22309.83334491 -.01219377  00000-0 -65443-2 0  9990,2 54185  53.2177 100.5028 0002577 274.1945 172.7110 15.82173018  1645,6702.434,91.014,326.026,322.571,0.0
54185.0,STARLINK-5235,PAYLOAD,2022-11-05 22:00:01,15.81987216,0.0002243,53.2173,100.0852,285.7529,276.089,-0.0068153999999999,-0.01254018,0.0,0 STARLINK-5235,1 54185U 22141AE  22309.91668981 -.01254018  00000-0 -68154-2 0  9996,2 54185  53.2173 100.0852 0002243 285.7529 276.0890 15.81987216  1305,6702.958000000001,91.025,326.327,323.32,0.0
54185.0,STARLINK-5235,PAYLOAD,2022-11-06 14:00:01,15.80229766,0.0001216,53.2173,96.7461,48.7736,349.7749,-0.0072257999999999,-0.01227382,0.0,0 STARLINK-5235,1 54185U 22141AE  22310.58334491 -.01227382  00000-0 -72258-2 0  9991,2 54185  53.2173  96.7461 0001216  48.7736 349.7749 15.80229766  1307,6707.927,91.126,330.608,328.977,0.0
54185.0,STARLINK-5235,PAYLOAD,2022-11-06 22:00:00,15.79327618,0.0001324,53.2171,95.0821,53.3701,82.0077,-0.0072032,-0.01179638,0.0,0 STARLINK-5235,1 54185U 22141AE  22310.91667824 -.01179638  00000-0 -72032-2 0  9997,2 54185  53.2171  95.0821 0001324  53.3701  82.0077 15.79327618  1811,6710.482,91.178,333.235,331.458,0.0
54185.0,STARLINK-5235,PAYLOAD,2022-11-07 14:00:01,15.77620926,0.0001091,53.2176,91.7557,49.114,276.7524,-0.0080734999999999,-0.01218228,0.0,0 STARLINK-5235,1 54185U 22141AE  22311.58334491 -.01218228  00000-0 -80735-2 0  9990,2 54185  53.2176  91.7557 0001091  49.1140 276.7524 15.77620926  1923,6715.32,91.277,337.918,336.4530000000001,0.0
54185.0,STARLINK-5235,PAYLOAD,2022-11-07 22:00:00,15.767366399999998,0.0001278,53.2171,90.0969,42.9076,16.6521,-0.0082252,-0.01195713,0.0,0 STARLINK-5235,1 54185U 22141AE  22311.91667824 -.01195713  00000-0 -82252-2 0  9995,2 54185  53.2171  90.0969 0001278  42.9076  16.6521 15.76736640  1303,6717.831,91.328,340.5540000000001,338.837,0.0
54185.0,STARLINK-5235,PAYLOAD,2022-11-08 10:00:01,15.75433,0.0001302,53.2175,87.6103,42.152,336.0484,-0.0086901,-0.01192542,0.0,0 STARLINK-5235,1 54185U 22141AE  22312.41668981 -.01192542  00000-0 -86901-2 0  9998,2 54185  53.2175  87.6103 0001302  42.1520 336.0484 15.75433000  2056,6721.536,91.403,344.276,342.526,0.0
54185.0,STARLINK-5235,PAYLOAD,2022-11-08 14:00:01,15.75021686,0.0001262999999999,53.2174,86.7846,60.6285,183.1645,-0.0091037,-0.0122283,0.0,0 STARLINK-5235,1 54185U 22141AE  22312.58334491 -.01222830  00000-0 -91037-2 0  9992,2 54185  53.2174  86.7846 0001263  60.6285 183.1645 15.75021686  1308,6722.706,91.427,345.421,343.722,0.0
54185.0,STARLINK-5235,PAYLOAD,2022-11-08 22:00:00,15.74001243,0.0001385,53.2171,85.1328,48.1704,286.211,-0.0062515,-0.00824679,0.0,0 STARLINK-5235,1 54185U 22141AE  22312.91667824 -.00824679  00000-0 -62515-2 0  9995,2 54185  53.2171  85.1328 0001385  48.1704 286.2110 15.74001243  1303,6725.611999999999,91.487,348.408,346.545,0.0
54185.0,STARLINK-5235,PAYLOAD,2022-11-09 04:00:00,15.73412267,0.0001311,53.2175,83.8921,58.0036,253.6073,-0.0022388,-0.00306428,0.0,0 STARLINK-5235,1 54185U 22141AE  22313.16667824 -.00306428  00000-0 -22388-2 0  9994,2 54185  53.2175  83.8921 0001311  58.0036 253.6073 15.73412267  2171,6727.29,91.521,350.037,348.273,0.0
54185.0,STARLINK-5235,PAYLOAD,2022-11-09 14:00:01,15.73294464,0.0001703,53.2188,81.8357,36.3902,116.4985,-0.00065275,-0.00091611,0.0,0 STARLINK-5235,1 54185U 22141AE  22313.58334491 -.00091611  00000-0 -65275-3 0  9999,2 54185  53.2188  81.8357 0001703  36.3902 116.4985 15.73294464  2234,6727.626,91.528,350.63699999999994,348.345,0.0
54185.0,STARLINK-5235,PAYLOAD,2022-11-09 22:00:01,15.73230821,0.0001781999999999,53.2183,80.1865,33.7778,208.1654,-0.00054364,-0.00076333,0.0,0 STARLINK-5235,1 54185U 22141AE  22313.91668981 -.00076333  00000-0 -54364-3 0  9991,2 54185  53.2183  80.1865 0001782  33.7778 208.1654 15.73230821  1300,6727.807,91.531,350.871,348.473,0.0
54185.0,STARLINK-5235,PAYLOAD,2022-11-10 14:00:01,15.73113592,0.000194,53.2188,76.888,39.7582,19.9352,0.00012897,0.00017451,0.0,0 STARLINK-5235,1 54185U 22141AE  22314.58334491  .00017451  00000-0  12897-3 0  9990,2 54185  53.2188  76.8880 0001940  39.7582  19.9352 15.73113592  1307,6728.142,91.538,351.31199999999984,348.701,0.0
54185.0,STARLINK-5235,PAYLOAD,2022-11-10 20:00:01,15.73161291,0.0001831,53.2187,75.6516,20.2453,16.1265,0.00050959,0.0007139,0.0,0 STARLINK-5235,1 54185U 22141AE  22314.83334491  .00071390  00000-0  50959-3 0  9991,2 54185  53.2187  75.6516 0001831  20.2453  16.1265 15.73161291  2436,6728.005999999999,91.535,351.102,348.639,0.0
54185.0,STARLINK-5235,PAYLOAD,2022-11-10 22:00:00,15.73179123,0.0001799,53.2189,75.2388,20.5343,128.0596,0.00036246,0.00050511,0.0,0 STARLINK-5235,1 54185U 22141AE  22314.91667824  .00050511  00000-0  36246-3 0  9994,2 54185  53.2189  75.2388 0001799  20.5343 128.0596 15.73179123  1303,6727.955,91.534,351.03,348.6090000000001,0.0
54185.0,STARLINK-5235,PAYLOAD,2022-11-11 14:00:01,15.73241374,0.0002039,53.2192,71.9399,28.0328,298.4624,-0.00017916,-0.00025735,0.0,0 STARLINK-5235,1 54185U 22141AE  22315.58334491 -.00025735  00000-0 -17916-3 0  9994,2 54185  53.2192  71.9399 0002039  28.0328 298.4624 15.73241374  2556,6727.776999999999,91.531,351.014,348.27,0.0
54185.0,STARLINK-5235,PAYLOAD,2022-11-11 22:00:00,15.73258567,0.0002141,53.2188,70.2904,25.9386,29.5304,-0.00033472,-0.00047455,0.0,0 STARLINK-5235,1 54185U 22141AE  22315.91667824 -.00047455  00000-0 -33472-3 0  9998,2 54185  53.2188  70.2904 0002141  25.9386  29.5304 15.73258567  1301,6727.728,91.53,351.034,348.153,0.0
54185.0,STARLINK-5235,PAYLOAD,2022-11-12 06:00:00,15.73183755,0.0001947,53.2189,68.6394,30.9581,113.4995,0.00073557,0.00103827,0.0,0 STARLINK-5235,1 54185U 22141AE  22316.25001157  .00103827  00000-0  73557-3 0  9999,2 54185  53.2189  68.6394 0001947  30.9581 113.4995 15.73183755  2656,6727.941,91.534,351.116,348.497,0.0
54185.0,STARLINK-5235,PAYLOAD,2022-11-12 14:00:01,15.73263347,0.0002147,53.2191,66.992,26.6569,206.7438,-0.00040237,-0.0005687,0.0,0 STARLINK-5235,1 54185U 22141AE  22316.58334491 -.00056870  00000-0 -40237-3 0  9991,2 54185  53.2191  66.9920 0002147  26.6569 206.7438 15.73263347  2706,6727.715,91.529,351.024,348.135,0.0
54185.0,STARLINK-5235,PAYLOAD,2022-11-12 22:00:00,15.73255767,0.000214,53.2192,65.3422,19.6156,302.7556,-0.00076325,-0.00106657,0.0,0 STARLINK-5235,1 54185U 22141AE  22316.91667824 -.00106657  00000-0 -76325-3 0  9993,2 54185  53.2192  65.3422 0002140  19.6156 302.7556 15.73255767  1304,6727.736,91.53,351.041,348.161,0.0
54185.0,STARLINK-5235,PAYLOAD,2022-11-13 14:00:01,15.73121524,0.0002265,53.2194,62.0437,15.3358,124.8612,-0.00019903,-0.00028369,0.0,0 STARLINK-5235,1 54185U 22141AE  22317.58334491 -.00028369  00000-0 -19903-3 0  9990,2 54185  53.2194  62.0437 0002265  15.3358 124.8612 15.73121524  1300,6728.119000000002,91.538,351.5080000000001,348.46,0.0
54185.0,STARLINK-5235,PAYLOAD,2022-11-13 20:00:01,15.73099312,0.0002338,53.219,60.807,12.5903,104.2225,0.00046403,0.0006473,0.0,0 STARLINK-5235,1 54185U 22141AE  22317.83334491  .00064730  00000-0  46403-3 0  9993,2 54185  53.2190  60.8070 0002338  12.5903 104.2225 15.73099312  2909,6728.182,91.539,351.62,348.474,0.0
